2026-027E               
1 67750U 26027E   26047.79909731  .00008652  00000+0  43208-3 0  9996
2 67750  97.4889 177.0468 0008754 285.1727  74.8538 15.17693410   698
2026-027F               
1 67751U 26027F   26047.79895265  .00014747  00000+0  73173-3 0  9999
2 67751  97.4890 177.0471 0009847 283.6436  76.3701 15.17768031   690
2026-027G               
1 67752U 26027G   26047.79885184  .00009199  00000+0  45799-3 0  9997
2 67752  97.4884 177.0467 0009073 287.0146  73.0094 15.17778276   697
2026-027H               
1 67753U 26027H   26047.81294140  .00388775  22965-5  75017-3 0  9993
2 67753  97.5138 177.3771 0271135 322.8151  35.4589 15.58796133   717
2026-027J               
1 67754U 26027J   26047.80758932  .00827241  23341-5  15186-2 0  9992
2 67754  97.5118 177.3856 0256383 322.4556  35.9034 15.62576785   650
2026-028A               
1 67756U 26028A   26047.29077050 -.00000244  00000+0  00000+0 0  9997
2 67756   0.5268 287.9889 0001825 248.5746 183.4121  1.01589916    41
CREW DRAGON 12          
1 67796U 26031A   26047.53756625  .00009593  00000+0  18404-3 0  9990
2 67796  51.6319 176.9116 0011020 104.8338 255.3872 15.48645386   477
