CCSDS_OMM_VERS = 2.0
CREATION_DATE  = 
ORIGINATOR     = 

OBJECT_NAME    = 2026-027E
OBJECT_ID      = 2026-027E
CENTER_NAME    = EARTH
REF_FRAME      = TEME
TIME_SYSTEM    = UTC
MEAN_ELEMENT_THEORY = SGP/SGP4

EPOCH          = 2026-02-16T19:10:42.007584
MEAN_MOTION    = 15.17693410
ECCENTRICITY   = .0008754
INCLINATION    = 97.4889
RA_OF_ASC_NODE = 177.0468
ARG_OF_PERICENTER = 285.1727
MEAN_ANOMALY   = 74.8538

EPHEMERIS_TYPE = 0
CLASSIFICATION_TYPE = U
NORAD_CAT_ID   = 67750
ELEMENT_SET_NO = 999
REV_AT_EPOCH   = 69
BSTAR          = .43208E-3
MEAN_MOTION_DOT = .8652E-4
MEAN_MOTION_DDOT = 0

CCSDS_OMM_VERS = 2.0
CREATION_DATE  = 
ORIGINATOR     = 

OBJECT_NAME    = 2026-027F
OBJECT_ID      = 2026-027F
CENTER_NAME    = EARTH
REF_FRAME      = TEME
TIME_SYSTEM    = UTC
MEAN_ELEMENT_THEORY = SGP/SGP4

EPOCH          = 2026-02-16T19:10:29.508960
MEAN_MOTION    = 15.17768031
ECCENTRICITY   = .0009847
INCLINATION    = 97.4890
RA_OF_ASC_NODE = 177.0471
ARG_OF_PERICENTER = 283.6436
MEAN_ANOMALY   = 76.3701

EPHEMERIS_TYPE = 0
CLASSIFICATION_TYPE = U
NORAD_CAT_ID   = 67751
ELEMENT_SET_NO = 999
REV_AT_EPOCH   = 69
BSTAR          = .73173E-3
MEAN_MOTION_DOT = .14747E-3
MEAN_MOTION_DDOT = 0

CCSDS_OMM_VERS = 2.0
CREATION_DATE  = 
ORIGINATOR     = 

OBJECT_NAME    = 2026-027G
OBJECT_ID      = 2026-027G
CENTER_NAME    = EARTH
REF_FRAME      = TEME
TIME_SYSTEM    = UTC
MEAN_ELEMENT_THEORY = SGP/SGP4

EPOCH          = 2026-02-16T19:10:20.798976
MEAN_MOTION    = 15.17778276
ECCENTRICITY   = .0009073
INCLINATION    = 97.4884
RA_OF_ASC_NODE = 177.0467
ARG_OF_PERICENTER = 287.0146
MEAN_ANOMALY   = 73.0094

EPHEMERIS_TYPE = 0
CLASSIFICATION_TYPE = U
NORAD_CAT_ID   = 67752
ELEMENT_SET_NO = 999
REV_AT_EPOCH   = 69
BSTAR          = .45799E-3
MEAN_MOTION_DOT = .9199E-4
MEAN_MOTION_DDOT = 0

CCSDS_OMM_VERS = 2.0
CREATION_DATE  = 
ORIGINATOR     = 

OBJECT_NAME    = 2026-027H
OBJECT_ID      = 2026-027H
CENTER_NAME    = EARTH
REF_FRAME      = TEME
TIME_SYSTEM    = UTC
MEAN_ELEMENT_THEORY = SGP/SGP4

EPOCH          = 2026-02-16T19:30:38.136960
MEAN_MOTION    = 15.58796133
ECCENTRICITY   = .0271135
INCLINATION    = 97.5138
RA_OF_ASC_NODE = 177.3771
ARG_OF_PERICENTER = 322.8151
MEAN_ANOMALY   = 35.4589

EPHEMERIS_TYPE = 0
CLASSIFICATION_TYPE = U
NORAD_CAT_ID   = 67753
ELEMENT_SET_NO = 999
REV_AT_EPOCH   = 71
BSTAR          = .75017E-3
MEAN_MOTION_DOT = .388775E-2
MEAN_MOTION_DDOT = .22965E-5

CCSDS_OMM_VERS = 2.0
CREATION_DATE  = 
ORIGINATOR     = 

OBJECT_NAME    = 2026-027J
OBJECT_ID      = 2026-027J
CENTER_NAME    = EARTH
REF_FRAME      = TEME
TIME_SYSTEM    = UTC
MEAN_ELEMENT_THEORY = SGP/SGP4

EPOCH          = 2026-02-16T19:22:55.717248
MEAN_MOTION    = 15.62576785
ECCENTRICITY   = .0256383
INCLINATION    = 97.5118
RA_OF_ASC_NODE = 177.3856
ARG_OF_PERICENTER = 322.4556
MEAN_ANOMALY   = 35.9034

EPHEMERIS_TYPE = 0
CLASSIFICATION_TYPE = U
NORAD_CAT_ID   = 67754
ELEMENT_SET_NO = 999
REV_AT_EPOCH   = 65
BSTAR          = .15186E-2
MEAN_MOTION_DOT = .827241E-2
MEAN_MOTION_DDOT = .23341E-5

CCSDS_OMM_VERS = 2.0
CREATION_DATE  = 
ORIGINATOR     = 

OBJECT_NAME    = 2026-028A
OBJECT_ID      = 2026-028A
CENTER_NAME    = EARTH
REF_FRAME      = TEME
TIME_SYSTEM    = UTC
MEAN_ELEMENT_THEORY = SGP/SGP4

EPOCH          = 2026-02-16T06:58:42.571200
MEAN_MOTION    = 1.01589916
ECCENTRICITY   = .00018254
INCLINATION    = 0.5268
RA_OF_ASC_NODE = 287.9889
ARG_OF_PERICENTER = 248.5746
MEAN_ANOMALY   = 183.4121

EPHEMERIS_TYPE = 0
CLASSIFICATION_TYPE = U
NORAD_CAT_ID   = 67756
ELEMENT_SET_NO = 999
REV_AT_EPOCH   = 4
BSTAR          = 0
MEAN_MOTION_DOT = -.244E-5
MEAN_MOTION_DDOT = 0

CCSDS_OMM_VERS = 2.0
CREATION_DATE  = 
ORIGINATOR     = 

OBJECT_NAME    = CREW DRAGON 12
OBJECT_ID      = 2026-031A
CENTER_NAME    = EARTH
REF_FRAME      = TEME
TIME_SYSTEM    = UTC
MEAN_ELEMENT_THEORY = SGP/SGP4

EPOCH          = 2026-02-16T12:54:05.724000
MEAN_MOTION    = 15.48645386
ECCENTRICITY   = .00110201
INCLINATION    = 51.6319
RA_OF_ASC_NODE = 176.9116
ARG_OF_PERICENTER = 104.8338
MEAN_ANOMALY   = 255.3872

EPHEMERIS_TYPE = 0
CLASSIFICATION_TYPE = U
NORAD_CAT_ID   = 67796
ELEMENT_SET_NO = 999
REV_AT_EPOCH   = 47
BSTAR          = .18403846E-3
MEAN_MOTION_DOT = .9593E-4
MEAN_MOTION_DDOT = 0

